[{"OBJECT_NAME":"STARLINK-30844","OBJECT_ID":"2023-180B","EPOCH":"2026-03-09T22:59:53.948256","MEAN_MOTION":15.27435532,"ECCENTRICITY":0.00020225,"INCLINATION":43.0027,"RA_OF_ASC_NODE":51.3331,"ARG_OF_PERICENTER":281.5481,"MEAN_ANOMALY":78.5143,"EPHEMERIS_TYPE":0,"CLASSIFICATION_TYPE":"U","NORAD_CAT_ID":58403,"ELEMENT_SET_NO":999,"REV_AT_EPOCH":12754,"BSTAR":0.0044836847,"MEAN_MOTION_DOT":0.00124673,"MEAN_MOTION_DDOT":0},{"OBJECT_NAME":"CZ-4C DEB","OBJECT_ID":"2015-069C","EPOCH":"2026-03-07T10:00:21.558816","MEAN_MOTION":15.31048021,"ECCENTRICITY":0.00583916,"INCLINATION":97.4862,"RA_OF_ASC_NODE":135.8649,"ARG_OF_PERICENTER":162.5456,"MEAN_ANOMALY":197.781,"EPHEMERIS_TYPE":0,"CLASSIFICATION_TYPE":"U","NORAD_CAT_ID":42670,"ELEMENT_SET_NO":999,"REV_AT_EPOCH":51749,"BSTAR":0.00045809658,"MEAN_MOTION_DOT":0.00014416,"MEAN_MOTION_DDOT":0}]
